{
  "type": "FeatureCollection",
  "features": [
    {
      "type": "Feature",
      "properties": {
        "norad_id": 40362,
        "name": "YAOGAN-26",
        "group": "resource",
        "lat": -72.9297875943196,
        "lon": 1.4376093084964394,
        "alt_km": 460.47796947059396,
        "timestamp": "2025-12-02T13:52:16.932898+00:00",
        "meta_object_name": "YAOGAN-26",
        "meta_object_id": "2014-088A",
        "meta_epoch": "2025-12-02T06:23:26.644704",
        "meta_mean_motion": 15.38732632,
        "meta_eccentricity": 0.00074169,
        "meta_inclination": 97.0642,
        "meta_ra_of_asc_node": 337.3183,
        "meta_arg_of_pericenter": 57.8258,
        "meta_mean_anomaly": 302.3706,
        "meta_ephemeris_type": 0,
        "meta_classification_type": "U",
        "meta_norad_cat_id": 40362,
        "meta_element_set_no": 999,
        "meta_rev_at_epoch": 60733,
        "meta_bstar": 0.0005830494,
        "meta_mean_motion_dot": 0.00022297,
        "meta_mean_motion_ddot": 0,
        "tle_line1": "1 40362U 14088A   25336.26628061  .00022297  00000+0  58305-3 0  9991",
        "tle_line2": "2 40362  97.0642 337.3183 0007416  57.8258 302.3706 15.38732632607336"
      },
      "geometry": {
        "type": "Point",
        "coordinates": [
          1.4376093084964394,
          -72.9297875943196
        ]
      }
    },
    {
      "type": "Feature",
      "properties": {
        "norad_id": 40376,
        "name": "SMAP",
        "group": "resource",
        "lat": 57.55878156607327,
        "lon": -31.547010744604428,
        "alt_km": 676.0085673232534,
        "timestamp": "2025-12-02T13:52:16.932907+00:00",
        "meta_object_name": "SMAP",
        "meta_object_id": "2015-003A",
        "meta_epoch": "2025-12-02T03:45:31.694976",
        "meta_mean_motion": 14.63353768,
        "meta_eccentricity": 0.00013379,
        "meta_inclination": 98.1292,
        "meta_ra_of_asc_node": 341.0331,
        "meta_arg_of_pericenter": 90.148,
        "meta_mean_anomaly": 269.9875,
        "meta_ephemeris_type": 0,
        "meta_classification_type": "U",
        "meta_norad_cat_id": 40376,
        "meta_element_set_no": 999,
        "meta_rev_at_epoch": 57880,
        "meta_bstar": 0.00014155159,
        "meta_mean_motion_dot": 6.84e-06,
        "meta_mean_motion_ddot": 0,
        "tle_line1": "1 40376U 15003A   25336.15661684  .00000684  00000+0  14155-3 0  9991",
        "tle_line2": "2 40376  98.1292 341.0331 0001337  90.1480 269.9875 14.63353768578804"
      },
      "geometry": {
        "type": "Point",
        "coordinates": [
          -31.547010744604428,
          57.55878156607327
        ]
      }
    },
    {
      "type": "Feature",
      "properties": {
        "norad_id": 40536,
        "name": "KOMPSAT-3A",
        "group": "resource",
        "lat": 55.31199002860476,
        "lon": -60.870016264482516,
        "alt_km": 431.01636785195114,
        "timestamp": "2025-12-02T13:52:16.932918+00:00",
        "meta_object_name": "KOMPSAT-3A",
        "meta_object_id": "2015-014A",
        "meta_epoch": "2025-12-02T05:50:56.323680",
        "meta_mean_motion": 15.43365244,
        "meta_eccentricity": 0.00036047,
        "meta_inclination": 97.677,
        "meta_ra_of_asc_node": 310.0163,
        "meta_arg_of_pericenter": 149.4614,
        "meta_mean_anomaly": 210.6843,
        "meta_ephemeris_type": 0,
        "meta_classification_type": "U",
        "meta_norad_cat_id": 40536,
        "meta_element_set_no": 999,
        "meta_rev_at_epoch": 59133,
        "meta_bstar": 0.00049246848,
        "meta_mean_motion_dot": 0.00021917,
        "meta_mean_motion_ddot": 0,
        "tle_line1": "1 40536U 15014A   25336.24370745  .00021917  00000+0  49247-3 0  9998",
        "tle_line2": "2 40536  97.6770 310.0163 0003604 149.4614 210.6843 15.43365244591334"
      },
      "geometry": {
        "type": "Point",
        "coordinates": [
          -60.870016264482516,
          55.31199002860476
        ]
      }
    },
    {
      "type": "Feature",
      "properties": {
        "norad_id": 40697,
        "name": "SENTINEL-2A",
        "group": "resource",
        "lat": 33.736710771313476,
        "lon": 43.47498965215338,
        "alt_km": 786.433672390951,
        "timestamp": "2025-12-02T13:52:16.932928+00:00",
        "meta_object_name": "SENTINEL-2A",
        "meta_object_id": "2015-028A",
        "meta_epoch": "2025-12-02T06:59:56.126112",
        "meta_mean_motion": 14.30820535,
        "meta_eccentricity": 0.00010416,
        "meta_inclination": 98.5704,
        "meta_ra_of_asc_node": 48.973,
        "meta_arg_of_pericenter": 93.7692,
        "meta_mean_anomaly": 266.361,
        "meta_ephemeris_type": 0,
        "meta_classification_type": "U",
        "meta_norad_cat_id": 40697,
        "meta_element_set_no": 999,
        "meta_rev_at_epoch": 54557,
        "meta_bstar": 9.9729387e-05,
        "meta_mean_motion_dot": 2.18e-06,
        "meta_mean_motion_ddot": 0,
        "tle_line1": "1 40697U 15028A   25336.29162183  .00000218  00000+0  99729-4 0  9993",
        "tle_line2": "2 40697  98.5704  48.9730 0001041  93.7692 266.3610 14.30820535545575"
      },
      "geometry": {
        "type": "Point",
        "coordinates": [
          43.47498965215338,
          33.736710771313476
        ]
      }
    },
    {
      "type": "Feature",
      "properties": {
        "norad_id": 40701,
        "name": "GAOFEN-8",
        "group": "resource",
        "lat": 62.98939259148681,
        "lon": -10.399901422893475,
        "alt_km": 441.8534159548017,
        "timestamp": "2025-12-02T13:52:16.932938+00:00",
        "meta_object_name": "GAOFEN-8",
        "meta_object_id": "2015-030A",
        "meta_epoch": "2025-12-02T07:07:22.111680",
        "meta_mean_motion": 15.37997278,
        "meta_eccentricity": 0.00111273,
        "meta_inclination": 97.6908,
        "meta_ra_of_asc_node": 153.9326,
        "meta_arg_of_pericenter": 174.9711,
        "meta_mean_anomaly": 185.1647,
        "meta_ephemeris_type": 0,
        "meta_classification_type": "U",
        "meta_norad_cat_id": 40701,
        "meta_element_set_no": 999,
        "meta_rev_at_epoch": 58110,
        "meta_bstar": 0.00060721307,
        "meta_mean_motion_dot": 0.00022694,
        "meta_mean_motion_ddot": 0,
        "tle_line1": "1 40701U 15030A   25336.29678370  .00022694  00000+0  60721-3 0  9993",
        "tle_line2": "2 40701  97.6908 153.9326 0011127 174.9711 185.1647 15.37997278581109"
      },
      "geometry": {
        "type": "Point",
        "coordinates": [
          -10.399901422893475,
          62.98939259148681
        ]
      }
    },
    {
      "type": "Feature",
      "properties": {
        "norad_id": 40718,
        "name": "CARBONITE 1 (CBNT-1)",
        "group": "resource",
        "lat": -79.02498617654784,
        "lon": -158.12737550495538,
        "alt_km": 623.738040719114,
        "timestamp": "2025-12-02T13:52:16.932948+00:00",
        "meta_object_name": "CARBONITE 1 (CBNT-1)",
        "meta_object_id": "2015-032D",
        "meta_epoch": "2025-12-02T07:45:45.419040",
        "meta_mean_motion": 14.82663353,
        "meta_eccentricity": 0.00137717,
        "meta_inclination": 97.6402,
        "meta_ra_of_asc_node": 157.8264,
        "meta_arg_of_pericenter": 216.7725,
        "meta_mean_anomaly": 143.2545,
        "meta_ephemeris_type": 0,
        "meta_classification_type": "U",
        "meta_norad_cat_id": 40718,
        "meta_element_set_no": 999,
        "meta_rev_at_epoch": 56016,
        "meta_bstar": 0.00041853425,
        "meta_mean_motion_dot": 3.329e-05,
        "meta_mean_motion_ddot": 0,
        "tle_line1": "1 40718U 15032D   25336.32344235  .00003329  00000+0  41853-3 0  9996",
        "tle_line2": "2 40718  97.6402 157.8264 0013771 216.7725 143.2545 14.82663353560165"
      },
      "geometry": {
        "type": "Point",
        "coordinates": [
          -158.12737550495538,
          -79.02498617654784
        ]
      }
    },
    {
      "type": "Feature",
      "properties": {
        "norad_id": 40878,
        "name": "YAOGAN-27",
        "group": "resource",
        "lat": -56.24479236610757,
        "lon": -17.874432273114603,
        "alt_km": 1200.9462068790954,
        "timestamp": "2025-12-02T13:52:16.932958+00:00",
        "meta_object_name": "YAOGAN-27",
        "meta_object_id": "2015-040A",
        "meta_epoch": "2025-12-02T06:51:54.628416",
        "meta_mean_motion": 13.16059623,
        "meta_eccentricity": 0.00077606,
        "meta_inclination": 100.1003,
        "meta_ra_of_asc_node": 326.3792,
        "meta_arg_of_pericenter": 312.4653,
        "meta_mean_anomaly": 47.5804,
        "meta_ephemeris_type": 0,
        "meta_classification_type": "U",
        "meta_norad_cat_id": 40878,
        "meta_element_set_no": 999,
        "meta_rev_at_epoch": 49176,
        "meta_bstar": 7.1502493e-05,
        "meta_mean_motion_dot": -1.5e-07,
        "meta_mean_motion_ddot": 0,
        "tle_line1": "1 40878U 15040A   25336.28604894 -.00000015  00000+0  71502-4 0  9992",
        "tle_line2": "2 40878 100.1003 326.3792 0007760 312.4653  47.5804 13.16059623491761"
      },
      "geometry": {
        "type": "Point",
        "coordinates": [
          -17.874432273114603,
          -56.24479236610757
        ]
      }
    }
  ]
}